[{"OBJECT_NAME":"STARLINK-31548","OBJECT_ID":"2024-045R","EPOCH":"2026-03-09T03:27:46.382976","MEAN_MOTION":15.2755473,"ECCENTRICITY":0.00012266,"INCLINATION":43.0008,"RA_OF_ASC_NODE":95.993,"ARG_OF_PERICENTER":264.6986,"MEAN_ANOMALY":95.3726,"EPHEMERIS_TYPE":0,"CLASSIFICATION_TYPE":"U","NORAD_CAT_ID":59193,"ELEMENT_SET_NO":999,"REV_AT_EPOCH":11307,"BSTAR":-9.8027172e-5,"MEAN_MOTION_DOT":-2.956e-5,"MEAN_MOTION_DDOT":0},{"OBJECT_NAME":"GESAT GEN1","OBJECT_ID":"2025-009D","EPOCH":"2026-03-09T17:26:20.087232","MEAN_MOTION":15.26847505,"ECCENTRICITY":8.879e-5,"INCLINATION":97.4058,"RA_OF_ASC_NODE":151.4598,"ARG_OF_PERICENTER":98.3547,"MEAN_ANOMALY":261.7793,"EPHEMERIS_TYPE":0,"CLASSIFICATION_TYPE":"U","NORAD_CAT_ID":62612,"ELEMENT_SET_NO":999,"REV_AT_EPOCH":6373,"BSTAR":0.00038326131,"MEAN_MOTION_DOT":0.00010041,"MEAN_MOTION_DDOT":0}]
